UMBRA-07                
1 58297U 23174AT  26186.13874195  .00018315  00000+0  11446-2 0  9994
2 58297  97.3781 241.2238 0003461  48.3702 311.7824 15.09493920146120
UMBRA-09                
1 60541U 24149CB  26186.19126876  .00031062  00000+0  14980-2 0  9994
2 60541  97.6964 273.7112 0001625 225.9608 134.1492 15.18640889103455
UMBRA-10                
1 60547U 24149CH  26186.25671263  .00028257  00000+0  13637-2 0  9992
2 60547  97.6971 273.8072 0000847 183.2362 176.8866 15.18638639103473
UMBRA-11                
1 66748U 25276CL  26186.21111626  .00035096  00000+0  13031-2 0  9998
2 66748  97.4186 260.7380 0001698 220.7226 139.3886 15.27483415 33249
UMBRA-12                
1 67371U 26004J   26186.44812411  .00006869  00000+0  72660-3 0  9996
2 67371  97.8018 184.9660 0007793  77.8986 282.3104 14.89479621 26025
