{"fetched_at":"2026-07-06T08:47:27.961Z","source":"https://celestrak.org/NORAD/elements/gp.php?NAME=UMBRA&FORMAT=JSON","constellation":"umbra","records":[{"OBJECT_NAME":"UMBRA-07","OBJECT_ID":"2023-174AT","EPOCH":"2026-07-05T03:19:47.303616","CLASSIFICATION_TYPE":"U","MEAN_MOTION":15.0949392,"ECCENTRICITY":0.0003462,"INCLINATION":97.3781,"RA_OF_ASC_NODE":241.2238,"ARG_OF_PERICENTER":48.3702,"MEAN_ANOMALY":311.7824,"EPHEMERIS_TYPE":0,"NORAD_CAT_ID":58297,"ELEMENT_SET_NO":999,"REV_AT_EPOCH":14612,"BSTAR":0.0011446,"MEAN_MOTION_DOT":0.00018315,"MEAN_MOTION_DDOT":0},{"OBJECT_NAME":"UMBRA-09","OBJECT_ID":"2024-149CB","EPOCH":"2026-07-05T04:35:25.620000","CLASSIFICATION_TYPE":"U","MEAN_MOTION":15.18640889,"ECCENTRICITY":0.0001626,"INCLINATION":97.6964,"RA_OF_ASC_NODE":273.7112,"ARG_OF_PERICENTER":225.9608,"MEAN_ANOMALY":134.1492,"EPHEMERIS_TYPE":0,"NORAD_CAT_ID":60541,"ELEMENT_SET_NO":999,"REV_AT_EPOCH":10345,"BSTAR":0.001498,"MEAN_MOTION_DOT":0.00031062,"MEAN_MOTION_DDOT":0},{"OBJECT_NAME":"UMBRA-10","OBJECT_ID":"2024-149CH","EPOCH":"2026-07-05T06:09:39.971232","CLASSIFICATION_TYPE":"U","MEAN_MOTION":15.18638639,"ECCENTRICITY":0.0000848,"INCLINATION":97.6971,"RA_OF_ASC_NODE":273.8072,"ARG_OF_PERICENTER":183.2362,"MEAN_ANOMALY":176.8866,"EPHEMERIS_TYPE":0,"NORAD_CAT_ID":60547,"ELEMENT_SET_NO":999,"REV_AT_EPOCH":10347,"BSTAR":0.0013637,"MEAN_MOTION_DOT":0.00028257,"MEAN_MOTION_DDOT":0},{"OBJECT_NAME":"UMBRA-11","OBJECT_ID":"2025-276CL","EPOCH":"2026-07-05T05:04:00.444000","CLASSIFICATION_TYPE":"U","MEAN_MOTION":15.27483415,"ECCENTRICITY":0.0001698,"INCLINATION":97.4186,"RA_OF_ASC_NODE":260.738,"ARG_OF_PERICENTER":220.7226,"MEAN_ANOMALY":139.3886,"EPHEMERIS_TYPE":0,"NORAD_CAT_ID":66748,"ELEMENT_SET_NO":999,"REV_AT_EPOCH":3324,"BSTAR":0.0013031,"MEAN_MOTION_DOT":0.00035096,"MEAN_MOTION_DDOT":0},{"OBJECT_NAME":"UMBRA-12","OBJECT_ID":"2026-004J","EPOCH":"2026-07-05T10:45:17.923104","CLASSIFICATION_TYPE":"U","MEAN_MOTION":14.89479621,"ECCENTRICITY":0.0007793,"INCLINATION":97.8018,"RA_OF_ASC_NODE":184.966,"ARG_OF_PERICENTER":77.8986,"MEAN_ANOMALY":282.3104,"EPHEMERIS_TYPE":0,"NORAD_CAT_ID":67371,"ELEMENT_SET_NO":999,"REV_AT_EPOCH":2602,"BSTAR":0.0007266,"MEAN_MOTION_DOT":0.00006869,"MEAN_MOTION_DDOT":0}]}
